[{"OBJECT_NAME":"SKYSAT-A","OBJECT_ID":"2013-066C","EPOCH":"2026-03-06T04:40:43.377600","MEAN_MOTION":15.12322561,"ECCENTRICITY":0.00203542,"INCLINATION":97.3957,"RA_OF_ASC_NODE":117.8467,"ARG_OF_PERICENTER":313.4986,"MEAN_ANOMALY":46.4552,"EPHEMERIS_TYPE":0,"CLASSIFICATION_TYPE":"U","NORAD_CAT_ID":39418,"ELEMENT_SET_NO":999,"REV_AT_EPOCH":67291,"BSTAR":0.00023627622,"MEAN_MOTION_DOT":4.049e-5,"MEAN_MOTION_DDOT":0},{"OBJECT_NAME":"SKYSAT-B","OBJECT_ID":"2014-037D","EPOCH":"2026-03-06T07:11:07.931040","MEAN_MOTION":14.87710397,"ECCENTRICITY":0.00042422,"INCLINATION":98.3725,"RA_OF_ASC_NODE":18.4942,"ARG_OF_PERICENTER":247.6363,"MEAN_ANOMALY":112.4403,"EPHEMERIS_TYPE":0,"CLASSIFICATION_TYPE":"U","NORAD_CAT_ID":40072,"ELEMENT_SET_NO":999,"REV_AT_EPOCH":63066,"BSTAR":0.00027694448,"MEAN_MOTION_DOT":2.463e-5,"MEAN_MOTION_DDOT":0},{"OBJECT_NAME":"SKYSAT-C1","OBJECT_ID":"2016-040C","EPOCH":"2026-03-06T01:10:34.277376","MEAN_MOTION":15.34420377,"ECCENTRICITY":0.00038102,"INCLINATION":96.9703,"RA_OF_ASC_NODE":102.417,"ARG_OF_PERICENTER":60.9373,"MEAN_ANOMALY":299.2252,"EPHEMERIS_TYPE":0,"CLASSIFICATION_TYPE":"U","NORAD_CAT_ID":41601,"ELEMENT_SET_NO":999,"REV_AT_EPOCH":54204,"BSTAR":0.00032341937,"MEAN_MOTION_DOT":0.00010713,"MEAN_MOTION_DDOT":0},{"OBJECT_NAME":"SKYSAT-C4","OBJECT_ID":"2016-058B","EPOCH":"2026-03-06T06:54:56.141856","MEAN_MOTION":15.45228474,"ECCENTRICITY":8.242e-5,"INCLINATION":96.929,"RA_OF_ASC_NODE":91.5462,"ARG_OF_PERICENTER":97.1935,"MEAN_ANOMALY":262.9409,"EPHEMERIS_TYPE":0,"CLASSIFICATION_TYPE":"U","NORAD_CAT_ID":41771,"ELEMENT_SET_NO":999,"REV_AT_EPOCH":52956,"BSTAR":0.00040319183,"MEAN_MOTION_DOT":0.00019095,"MEAN_MOTION_DDOT":0},{"OBJECT_NAME":"SKYSAT-C5","OBJECT_ID":"2016-058C","EPOCH":"2026-03-06T02:35:28.618368","MEAN_MOTION":15.34205822,"ECCENTRICITY":0.00018135,"INCLINATION":97.0616,"RA_OF_ASC_NODE":110.3271,"ARG_OF_PERICENTER":85.2911,"MEAN_ANOMALY":274.854,"EPHEMERIS_TYPE":0,"CLASSIFICATION_TYPE":"U","NORAD_CAT_ID":41772,"ELEMENT_SET_NO":999,"REV_AT_EPOCH":52794,"BSTAR":0.00028173311,"MEAN_MOTION_DOT":9.256e-5,"MEAN_MOTION_DDOT":0},{"OBJECT_NAME":"SKYSAT-C2","OBJECT_ID":"2016-058D","EPOCH":"2026-03-06T03:12:32.532768","MEAN_MOTION":15.39584288,"ECCENTRICITY":0.00051868,"INCLINATION":97.028,"RA_OF_ASC_NODE":91.2252,"ARG_OF_PERICENTER":75.8158,"MEAN_ANOMALY":284.3664,"EPHEMERIS_TYPE":0,"CLASSIFICATION_TYPE":"U","NORAD_CAT_ID":41773,"ELEMENT_SET_NO":999,"REV_AT_EPOCH":52918,"BSTAR":0.00033787691,"MEAN_MOTION_DOT":0.00013232,"MEAN_MOTION_DDOT":0},{"OBJECT_NAME":"SKYSAT-C3","OBJECT_ID":"2016-058E","EPOCH":"2026-03-06T06:17:01.713696","MEAN_MOTION":15.48133107,"ECCENTRICITY":0.00016162,"INCLINATION":96.9176,"RA_OF_ASC_NODE":100.2785,"ARG_OF_PERICENTER":106.4419,"MEAN_ANOMALY":253.701,"EPHEMERIS_TYPE":0,"CLASSIFICATION_TYPE":"U","NORAD_CAT_ID":41774,"ELEMENT_SET_NO":999,"REV_AT_EPOCH":53016,"BSTAR":0.00045033047,"MEAN_MOTION_DOT":0.00023595,"MEAN_MOTION_DDOT":0},{"OBJECT_NAME":"SKYSAT-C11","OBJECT_ID":"2017-068A","EPOCH":"2026-03-06T07:12:11.136096","MEAN_MOTION":15.52129717,"ECCENTRICITY":7.355e-5,"INCLINATION":97.4198,"RA_OF_ASC_NODE":210.173,"ARG_OF_PERICENTER":83.232,"MEAN_ANOMALY":276.9017,"EPHEMERIS_TYPE":0,"CLASSIFICATION_TYPE":"U","NORAD_CAT_ID":42987,"ELEMENT_SET_NO":999,"REV_AT_EPOCH":46725,"BSTAR":0.00056583885,"MEAN_MOTION_DOT":0.00034196,"MEAN_MOTION_DDOT":0},{"OBJECT_NAME":"SKYSAT-C10","OBJECT_ID":"2017-068B","EPOCH":"2026-03-06T06:30:55.807200","MEAN_MOTION":15.32577709,"ECCENTRICITY":0.00010879,"INCLINATION":97.4335,"RA_OF_ASC_NODE":201.3671,"ARG_OF_PERICENTER":90.7446,"MEAN_ANOMALY":269.3921,"EPHEMERIS_TYPE":0,"CLASSIFICATION_TYPE":"U","NORAD_CAT_ID":42988,"ELEMENT_SET_NO":999,"REV_AT_EPOCH":46658,"BSTAR":0.00041480019,"MEAN_MOTION_DOT":0.00012978,"MEAN_MOTION_DDOT":0},{"OBJECT_NAME":"SKYSAT-C9","OBJECT_ID":"2017-068C","EPOCH":"2026-03-06T07:57:36.683712","MEAN_MOTION":15.38754361,"ECCENTRICITY":0.00097286,"INCLINATION":97.4262,"RA_OF_ASC_NODE":201.436,"ARG_OF_PERICENTER":143.8914,"MEAN_ANOMALY":216.299,"EPHEMERIS_TYPE":0,"CLASSIFICATION_TYPE":"U","NORAD_CAT_ID":42989,"ELEMENT_SET_NO":999,"REV_AT_EPOCH":46692,"BSTAR":0.00046056586,"MEAN_MOTION_DOT":0.00017605,"MEAN_MOTION_DDOT":0},{"OBJECT_NAME":"SKYSAT-C8","OBJECT_ID":"2017-068D","EPOCH":"2026-03-05T08:20:38.660352","MEAN_MOTION":15.34624389,"ECCENTRICITY":8.59e-5,"INCLINATION":97.4349,"RA_OF_ASC_NODE":199.8628,"ARG_OF_PERICENTER":119.9658,"MEAN_ANOMALY":240.1671,"EPHEMERIS_TYPE":0,"CLASSIFICATION_TYPE":"U","NORAD_CAT_ID":42990,"ELEMENT_SET_NO":999,"REV_AT_EPOCH":46637,"BSTAR":0.00020698,"MEAN_MOTION_DOT":6.863e-5,"MEAN_MOTION_DDOT":0},{"OBJECT_NAME":"SKYSAT-C7","OBJECT_ID":"2017-068E","EPOCH":"2026-03-06T07:34:36.778080","MEAN_MOTION":15.34611131,"ECCENTRICITY":0.00073642,"INCLINATION":97.4363,"RA_OF_ASC_NODE":201.8214,"ARG_OF_PERICENTER":113.7632,"MEAN_ANOMALY":246.4384,"EPHEMERIS_TYPE":0,"CLASSIFICATION_TYPE":"U","NORAD_CAT_ID":42991,"ELEMENT_SET_NO":999,"REV_AT_EPOCH":46658,"BSTAR":0.00044175958,"MEAN_MOTION_DOT":0.00014758,"MEAN_MOTION_DDOT":0},{"OBJECT_NAME":"SKYSAT-C6","OBJECT_ID":"2017-068F","EPOCH":"2026-03-06T07:22:17.922432","MEAN_MOTION":15.3240308,"ECCENTRICITY":0.0003636,"INCLINATION":97.4392,"RA_OF_ASC_NODE":202.1075,"ARG_OF_PERICENTER":135.6289,"MEAN_ANOMALY":224.5244,"EPHEMERIS_TYPE":0,"CLASSIFICATION_TYPE":"U","NORAD_CAT_ID":42992,"ELEMENT_SET_NO":999,"REV_AT_EPOCH":46655,"BSTAR":0.00061732804,"MEAN_MOTION_DOT":0.00019266,"MEAN_MOTION_DDOT":0},{"OBJECT_NAME":"SKYSAT-C12","OBJECT_ID":"2018-099AR","EPOCH":"2026-03-06T01:38:02.643360","MEAN_MOTION":15.4544538,"ECCENTRICITY":0.00050871,"INCLINATION":96.938,"RA_OF_ASC_NODE":92.6371,"ARG_OF_PERICENTER":147.8494,"MEAN_ANOMALY":212.3068,"EPHEMERIS_TYPE":0,"CLASSIFICATION_TYPE":"U","NORAD_CAT_ID":43797,"ELEMENT_SET_NO":999,"REV_AT_EPOCH":40591,"BSTAR":0.00036185831,"MEAN_MOTION_DOT":0.0001726,"MEAN_MOTION_DDOT":0},{"OBJECT_NAME":"SKYSAT-C13","OBJECT_ID":"2018-099AW","EPOCH":"2026-03-06T02:38:32.586432","MEAN_MOTION":15.75982742,"ECCENTRICITY":0.00036284,"INCLINATION":96.9411,"RA_OF_ASC_NODE":112.7384,"ARG_OF_PERICENTER":211.8045,"MEAN_ANOMALY":148.3003,"EPHEMERIS_TYPE":0,"CLASSIFICATION_TYPE":"U","NORAD_CAT_ID":43802,"ELEMENT_SET_NO":999,"REV_AT_EPOCH":40660,"BSTAR":0.00053850282,"MEAN_MOTION_DOT":0.00083844,"MEAN_MOTION_DDOT":0},{"OBJECT_NAME":"FLOCK 4Q-16","OBJECT_ID":"2023-174R","EPOCH":"2026-03-06T04:37:22.323072","MEAN_MOTION":15.44551753,"ECCENTRICITY":0.00079508,"INCLINATION":97.387,"RA_OF_ASC_NODE":151.2634,"ARG_OF_PERICENTER":169.7945,"MEAN_ANOMALY":190.3466,"EPHEMERIS_TYPE":0,"CLASSIFICATION_TYPE":"U","NORAD_CAT_ID":58271,"ELEMENT_SET_NO":999,"REV_AT_EPOCH":12965,"BSTAR":0.00055238144,"MEAN_MOTION_DOT":0.00025639,"MEAN_MOTION_DDOT":0}]
